THAICOM 8               
1 41552U 16031A   20071.94478422 -.00000140  00000-0  00000-0 0  9994
2 41552   0.0696  54.4243 0005808 323.9860 210.2667  1.00271822 13779
INTELSAT 31 (IS-31)     
1 41581U 16035A   20072.44161321 -.00000169  00000-0  00000+0 0  9993
2 41581   0.0150 206.6906 0002606 354.5149  33.2320  1.00270163 13750
BEIDOU-2 G7             
1 41586U 16037A   20072.38183619 -.00000371  00000-0  00000+0 0  9992
2 41586   1.3112  60.3919 0009292   2.4373 355.5707  1.00265897 13849
ABS-2A (MONGOLSAT-1)    
1 41588U 16038A   20072.37468286 -.00000102  00000-0  00000+0 0  9992
2 41588   0.0089 197.7248 0001787  99.3692  82.9567  1.00270888 13762
EUTELSAT 117 WEST B     
1 41589U 16038B   20072.37294175 -.00000030  00000-0  00000+0 0  9997
2 41589   0.0226 321.6027 0000276 197.6295  28.4862  1.00272571 13766
BRISAT                  
1 41591U 16039A   20071.95909093 -.00000216  00000-0  00000-0 0  9993
2 41591   0.0227 172.0846 0002296 183.2641 310.4794  1.00269207 13677
ECHOSTAR 18             
1 41592U 16039B   20072.08243959 -.00000300  00000-0  00000-0 0  9995
2 41592   0.0186 154.8739 0001732 203.7246 139.8943  1.00271977 13692
MUOS-5                  
1 41622U 16041A   20072.21286771 -.00000163  00000-0  00000-0 0  9993
2 41622   7.4545 308.3491 0197614 215.3400 338.1939  1.00272518 14145
TIANTONG-1 1            
1 41725U 16048A   20072.18452295 -.00000336  00000-0  00000-0 0  9998
2 41725   3.1231 332.5468 0006258  36.6004 328.9178  1.00270815 13323
JCSAT-16                
1 41729U 16050A   20072.02565194 -.00000375  00000-0  00000-0 0  9994
2 41729   0.0436  98.7953 0003808 204.3512   0.2102  1.00272346 13122
USA 270                 
1 41744U 16052A   20058.52116275  .00000071  00000-0  00000+0 0  9995
2 41744   0.2944  97.7895 0000924  31.5676 230.6283  1.00090219  5066
INTELSAT 36 (IS-36)     
1 41747U 16053A   20072.15807608 -.00000043  00000-0  00000-0 0  9992
2 41747   0.0158 143.6736 0001070 244.3480 267.6413  1.00269685 13024
INTELSAT 33E (IS-33E)   
1 41748U 16053B   20072.15641858  .00000031  00000-0  00000+0 0  9991
2 41748   0.0449  12.3943 0001845   4.4972 269.6338  1.00272308 13272
INSAT-3DR               
1 41752U 16054A   20072.37450838 -.00000095  00000-0  00000+0 0  9998
2 41752   0.0464  89.3638 0011888 194.0603  95.8321  1.00271040 12861
GSAT-18                 
1 41793U 16060A   20072.08741497 -.00000096  00000-0  00000-0 0  9994
2 41793   0.0312 271.3630 0001543 179.2510 185.0161  1.00271075 12594
SKY MUSTER 2            
1 41794U 16060B   20072.45597087 -.00000263  00000-0  00000+0 0  9995
2 41794   0.0175 182.4854 0001608 183.5923 113.4000  1.00270889 12634
HIMAWARI-9              
1 41836U 16064A   20072.45391524 -.00000294  00000-0  00000+0 0  9998
2 41836   0.0197 160.8480 0001061 223.5942  90.2904  1.00269584 12364
SHIJIAN-17 (SJ-17)      
1 41838U 16065A   20071.98450764 -.00000380  00000-0  00000-0 0  9997
2 41838   0.0417  14.9143 0001649  18.1330 246.6955  1.00275281 12260
GOES 16                 
1 41866U 16071A   20072.17757569 -.00000267  00000-0  00000-0 0  9994
2 41866   0.0398  47.7114 0000989 347.6695 123.6220  1.00271652 12178
TIANLIAN 1-04           
1 41869U 16072A   20072.01623045 -.00000127  00000-0  00000-0 0  9997
2 41869   0.4517 282.3088 0014492 157.4190 173.2929  1.00273231 12369
WGS F8 (USA 272)        
1 41879U 16075A   20072.24078105 -.00000221  00000-0  00000-0 0  9992
2 41879   0.0155 154.0211 0000168 217.5565  35.2296  1.00272062 11898
FENGYUN 4A              
1 41882U 16077A   20072.32536100 -.00000347  00000-0  00000-0 0  9990
2 41882   0.1228  84.9309 0004662  18.3131 288.7969  1.00264563 12049
ECHOSTAR 19             
1 41893U 16079A   20072.45676569 -.00000157  00000-0  00000+0 0  9990
2 41893   0.0078 136.8713 0001502 222.8237 238.1708  1.00269943 11796
JCSAT-15                
1 41903U 16082A   20072.45354413 -.00000369  00000-0  00000+0 0  9992
2 41903   0.0111 197.9496 0001574 163.4584  82.4641  1.00269867 11843
STAR ONE D1             
1 41904U 16082B   20072.41481137 -.00000230  00000-0  00000+0 0  9990
2 41904   0.0201 130.6949 0002095 230.0612 235.0768  1.00273315 11842
TJS-2                   
1 41911U 17001A   20072.13174494 -.00000361  00000-0  00000+0 0  9999
2 41911   0.1241 282.3249 0006727  55.2663 347.5455  1.00269831 11785
SBIRS GEO-4 (USA 273)   
1 41937U 17004A   20072.47160194  .00000109  00000-0  00000+0 0  9998
2 41937   3.9888 311.9194 0001891  51.1228 177.8670  1.00272118 11660
HISPASAT 36W-1          
1 41942U 17006A   20072.07132851 -.00000263  00000-0  00000-0 0  9994
2 41942   0.0173 346.5898 0000990   0.7189 172.5214  1.00271211 11299
TELKOM 3S               
1 41944U 17007A   20072.02443062 -.00000381  00000-0  00000+0 0  9991
2 41944   0.0094 161.4701 0002459 207.5674 287.8559  1.00269468 11268
INTELSAT 32E (IS-32E)   
1 41945U 17007B   20072.45527816 -.00000288  00000-0  00000+0 0  9995
2 41945   0.0184 143.9143 0000581 269.7689 237.5634  1.00275597 11305
ECHOSTAR 23             
1 42070U 17014A   20072.04285402 -.00000288  00000-0  00000-0 0  9991
2 42070   0.0247 158.6785 0001969 201.2286 117.7590  1.00269533 11005
WGS F9 (USA 275)        
1 42075U 17016A   20072.08401278  .00000055  00000-0  00000-0 0  9994
2 42075   0.0153 151.0701 0000172  95.5096  10.6345  1.00270070 10960
SES-10                  
1 42432U 17017A   20072.22271894 -.00000291  00000-0  00000-0 0  9990
2 42432   0.0210 129.1637 0002686 235.1925 179.2165  1.00269098 10814
CHINASAT 16 (SJ-13)     
1 42662U 17018A   20072.45363135 -.00000370  00000-0  99999+0 0  9993
2 42662   0.0620 102.6326 0005318 137.3340 204.3256  1.00267199 10804
KOREASAT 7              
1 42691U 17023A   20072.38288302 -.00000380  00000-0  00000+0 0  9991
2 42691   0.0105 117.0873 0001302 212.7940  94.3081  1.00270515 10500
SGDC                    
1 42692U 17023B   20071.73616406 -.00000268  00000-0  00000-0 0  9996
2 42692   0.0128 101.7451 0002002 293.5139 324.7317  1.00271699 10486
GSAT-9                  
1 42695U 17024A   20072.13729948 -.00000304  00000-0  00000-0 0  9992
2 42695   0.0117 144.7593 0002388 208.3528 323.8043  1.00269512 10379
INMARSAT 5-F4           
1 42698U 17025A   20072.15572069  .00000057  00000-0  00000+0 0  9991
2 42698   0.0123 150.1268 0000604 181.1242 311.5208  1.00271003 10318
SES-15                  
1 42709U 17026A   20072.41606601  .00000041  00000-0  00000+0 0  9997
2 42709   0.0161 105.0150 0000920 252.7935 193.3188  1.00273431 11240
QZS-2  (MICHIBIKI-2)    
1 42738U 17028A   20071.88694682 -.00000164  00000-0  00000+0 0  9994
2 42738  43.1538 275.7759 0747448 270.2503  83.6970  1.00267090 10194
VIASAT-2                
1 42740U 17029A   20072.04285402 -.00000283  00000-0  00000-0 0  9996
2 42740   0.0206 238.2019 0000127 150.1904  87.2442  1.00270568 10245
EUTELSAT 172B           
1 42741U 17029B   20072.24860177 -.00000025  00000-0  00000-0 0  9991
2 42741   0.0179 125.3033 0000173 282.6392  23.8830  1.00270642 10778
GSAT-19                 
1 42747U 17031A   20071.91241398  .00000106  00000-0  00000-0 0  9990
2 42747   0.0365 230.9203 0006586 157.6149 157.8100  1.00273392 10197
ECHOSTAR 21             
1 42749U 17032A   20072.13730064  .00000043  00000-0  00000-0 0  9991
2 42749   5.6950 313.1754 0002271  55.5363 221.1601  1.00271909 10166
CHINASAT 9A (ZX 9A)     
1 42763U 17035A   20072.33175683 -.00000331  00000-0  00000-0 0  9993
2 42763   0.0201 211.2635 0002757 211.4732 328.5028  1.00268414 10711
BULGARIASAT-1           
1 42801U 17038A   20072.14481619 -.00000008  00000-0  00000-0 0  9998
2 42801   0.0358 263.8930 0002623  93.5303 226.8310  1.00272492  9884
HELLAS-SAT 3            
1 42814U 17040A   20072.16624605  .00000134  00000-0  00000-0 0  9990
2 42814   0.0681  21.7527 0005225 340.6331 266.7175  1.00268362  9926
GSAT-17                 
1 42815U 17040B   20071.88243955 -.00000276  00000-0  00000-0 0  9992
2 42815   0.0436 272.0208 0003736  16.2222 292.8804  1.00269124  9849
INTELSAT 35E (IS-35E)   
1 42818U 17041A   20072.21785626 -.00000256  00000-0  00000-0 0  9998
2 42818   0.0223 190.2282 0002278 175.1457 208.8479  1.00271744  9930
COSMOS 2520             
1 42907U 17046A   20072.08165740  .00000118  00000-0  00000-0 0  9992
2 42907   0.0229 132.8051 0000647 307.7226 164.0258  1.00272072  9456
TDRS 13                 
1 42915U 17047A   20072.28933951 -.00000120  00000-0  00000+0 0  9994
2 42915   5.7230 330.1837 0015701  80.0360 212.9179  1.00271654  9439
QZS-3 (MICHIBIKI-3)     
1 42917U 17048A   20071.88267226 -.00000367  00000-0  00000-0 0  9991
2 42917   0.0583 216.5981 0002578 155.7222 242.4445  1.00273641  9311
AMAZONAS 5              
1 42934U 17053A   20072.41943487 -.00000301  00000-0  00000+0 0  9993
2 42934   0.0442 329.4456 0004674  17.5502 273.4666  1.00267922  9189
ASIASAT 9               
1 42942U 17057A   20070.58958779 -.00000378  00000-0  00000-0 0  9997
2 42942   0.0332 144.3774 0002539 185.7877 172.8832  1.00269616  8980
INTELSAT 37E (IS-37E)   
1 42950U 17059A   20072.24007683 -.00000160  00000-0  00000-0 0  9991
2 42950   0.0182 171.7195 0001875 191.9702 235.0466  1.00270729  9119
BSAT-4A                 
1 42951U 17059B   20072.52527203 -.00000369  00000-0  00000+0 0  9998
2 42951   0.0517 358.1391 0004605  35.8957  75.5031  1.00271149  9014
QZS-4 (MICHIBIKI-4)     
1 42965U 17062A   20071.72757834 -.00000318  00000-0  00000+0 0  9997
2 42965  40.8106  12.8773 0748972 269.8019 288.2235  1.00282833  8866
SES-11 (ECHOSTAR 105)   
1 42967U 17063A   20072.19532580 -.00000108  00000-0  00000-0 0  9999
2 42967   0.0164 224.6398 0002379 135.1787 135.8339  1.00272139  8878
KOREASAT 5A             
1 42984U 17067A   20072.52596991 -.00000377  00000-0  00000+0 0  9992
2 42984   0.0210 128.4923 0001128 202.2844 142.3131  1.00270051  8699
